[{
    "name": "Zagrebačka",
    "slug": "zagrebacka",
    "cities": [{
        "name": "Gornji Stupnik",
        "slug": "gornji-stupnik",
        "zip_code": "10255"
    }, {
        "name": "Prigorje Brdovečko",
        "slug": "prigorje-brdovecko",
        "zip_code": "10291"
    }, {
        "name": "Šenkovec",
        "slug": "senkovec",
        "zip_code": "10292"
    }, {
        "name": "Dubravica",
        "slug": "dubravica",
        "zip_code": "10293"
    }, {
        "name": "Donja Pušća",
        "slug": "donja-pusca",
        "zip_code": "10294"
    }, {
        "name": "Kupljenovo",
        "slug": "kupljenovo",
        "zip_code": "10295"
    }, {
        "name": "Luka",
        "slug": "luka",
        "zip_code": "10296"
    }, {
        "name": "Jakovlje",
        "slug": "jakovlje",
        "zip_code": "10297"
    }, {
        "name": "Donja Bistra",
        "slug": "donja-bistra",
        "zip_code": "10298"
    }, {
        "name": "Marija Gorica",
        "slug": "marija-gorica",
        "zip_code": "10299"
    }, {
        "name": "Ivanić-Grad",
        "slug": "ivanic-grad",
        "zip_code": "10310"
    }, {
        "name": "Posavski Bregi",
        "slug": "posavski-bregi",
        "zip_code": "10311"
    }, {
        "name": "Kloštar Ivanić",
        "slug": "klostar-ivanic",
        "zip_code": "10312"
    }, {
        "name": "Graberje Ivaničko",
        "slug": "graberje-ivanicko",
        "zip_code": "10313"
    }, {
        "name": "Križ",
        "slug": "kriz",
        "zip_code": "10314"
    }, {
        "name": "Novoselec",
        "slug": "novoselec",
        "zip_code": "10315"
    }, {
        "name": "Lijevi Dubrovčak",
        "slug": "lijevi-dubrovcak",
        "zip_code": "10316"
    }, {
        "name": "Vrbovec",
        "slug": "vrbovec",
        "zip_code": "10340"
    }, {
        "name": "Lonjica",
        "slug": "lonjica",
        "zip_code": "10341"
    }, {
        "name": "Dubrava",
        "slug": "dubrava",
        "zip_code": "10342"
    }, {
        "name": "Nova Kapela",
        "slug": "nova-kapela",
        "zip_code": "10343"
    }, {
        "name": "Farkaševac",
        "slug": "farkasevac",
        "zip_code": "10344"
    }, {
        "name": "Gradec",
        "slug": "gradec",
        "zip_code": "10345"
    }, {
        "name": "Preseka",
        "slug": "preseka",
        "zip_code": "10346"
    }, {
        "name": "Rakovec",
        "slug": "rakovec",
        "zip_code": "10347"
    }, {
        "name": "Dugo Selo",
        "slug": "dugo-selo",
        "zip_code": "10370"
    }, {
        "name": "Oborovo",
        "slug": "oborovo",
        "zip_code": "10372"
    }, {
        "name": "Sveti Ivan Zelina",
        "slug": "sveti-ivan-zelina",
        "zip_code": "10380"
    }, {
        "name": "Bedenica",
        "slug": "bedenica",
        "zip_code": "10381"
    }, {
        "name": "Donja Zelina",
        "slug": "donja-zelina",
        "zip_code": "10382"
    }, {
        "name": "Komin",
        "slug": "komin",
        "zip_code": "10383"
    }, {
        "name": "Velika Mlaka",
        "slug": "velika-mlaka",
        "zip_code": "10408"
    }, {
        "name": "Velika Gorica",
        "slug": "velika-gorica",
        "zip_code": "10410"
    }, {
        "name": "Orle",
        "slug": "orle",
        "zip_code": "10411"
    }, {
        "name": "Donja Lomnica",
        "slug": "donja-lomnica",
        "zip_code": "10412"
    }, {
        "name": "Kravarsko",
        "slug": "kravarsko",
        "zip_code": "10413"
    }, {
        "name": "Pokupsko",
        "slug": "pokupsko",
        "zip_code": "10414"
    }, {
        "name": "Novo Čiče",
        "slug": "novo-cice",
        "zip_code": "10415"
    }, {
        "name": "Buševec",
        "slug": "busevec",
        "zip_code": "10417"
    }, {
        "name": "Dubranec",
        "slug": "dubranec",
        "zip_code": "10418"
    }, {
        "name": "Vukovina",
        "slug": "vukovina",
        "zip_code": "10419"
    }, {
        "name": "Samobor",
        "slug": "samobor",
        "zip_code": "10430"
    }, {
        "name": "Sveta Nedjelja",
        "slug": "sveta-nedjelja",
        "zip_code": "10431"
    }, {
        "name": "Bregana",
        "slug": "bregana",
        "zip_code": "10432"
    }, {
        "name": "Strmec Samoborski",
        "slug": "strmec-samoborski",
        "zip_code": "10434"
    }, {
        "name": "Sveti Martin pod Okićem",
        "slug": "sveti-martin-pod-okicem",
        "zip_code": "10435"
    }, {
        "name": "Rakov Potok",
        "slug": "rakov-potok",
        "zip_code": "10436"
    }, {
        "name": "Bestovje",
        "slug": "bestovje",
        "zip_code": "10437"
    }, {
        "name": "Jastrebarsko",
        "slug": "jastrebarsko",
        "zip_code": "10450"
    }, {
        "name": "Pisarovina",
        "slug": "pisarovina",
        "zip_code": "10451"
    }, {
        "name": "Gorica Svetojanska",
        "slug": "gorica-svetojanska",
        "zip_code": "10453"
    }, {
        "name": "Krašić",
        "slug": "krasic",
        "zip_code": "10454"
    }, {
        "name": "Kostanjevac",
        "slug": "kostanjevac",
        "zip_code": "10455"
    }, {
        "name": "Kalje",
        "slug": "kalje",
        "zip_code": "10456"
    }, {
        "name": "Sošice",
        "slug": "sosice",
        "zip_code": "10457"
    }]
}, {
    "name": "Krapinsko-zagorska",
    "slug": "krapinsko-zagorska",
    "cities": [{
        "name": "Krapina",
        "slug": "krapina",
        "zip_code": "49000"
    }, {
        "name": "Zabok",
        "slug": "zabok",
        "zip_code": "49210"
    }, {
        "name": "Veliko Trgovišće",
        "slug": "veliko-trgovisce",
        "zip_code": "49214"
    }, {
        "name": "Tuhelj",
        "slug": "tuhelj",
        "zip_code": "49215"
    }, {
        "name": "Desinić",
        "slug": "desinic",
        "zip_code": "49216"
    }, {
        "name": "Krapinske Toplice",
        "slug": "krapinske-toplice",
        "zip_code": "49217"
    }, {
        "name": "Pregrada",
        "slug": "pregrada",
        "zip_code": "49218"
    }, {
        "name": "Bedekovčina",
        "slug": "bedekovcina",
        "zip_code": "49221"
    }, {
        "name": "Poznanovec",
        "slug": "poznanovec",
        "zip_code": "49222"
    }, {
        "name": "Sveti Križ Začretje",
        "slug": "sveti-kriz-zacretje",
        "zip_code": "49223"
    }, {
        "name": "Lepajci",
        "slug": "lepajci",
        "zip_code": "49224"
    }, {
        "name": "Đurmanec",
        "slug": "durmanec",
        "zip_code": "49225"
    }, {
        "name": "Brestovec Orehovički",
        "slug": "brestovec-orehovicki",
        "zip_code": "49228"
    }, {
        "name": "Hum na Sutli",
        "slug": "hum-na-sutli",
        "zip_code": "49231"
    }, {
        "name": "Radoboj",
        "slug": "radoboj",
        "zip_code": "49232"
    }, {
        "name": "Gornje Jesenje",
        "slug": "gornje-jesenje",
        "zip_code": "49233"
    }, {
        "name": "Petrovsko",
        "slug": "petrovsko",
        "zip_code": "49234"
    }, {
        "name": "Donja Stubica",
        "slug": "donja-stubica",
        "zip_code": "49240"
    }, {
        "name": "Oroslavje",
        "slug": "oroslavje",
        "zip_code": "49243"
    }, {
        "name": "Stubičke Toplice",
        "slug": "stubicke-toplice",
        "zip_code": "49244"
    }, {
        "name": "Gornja Stubica",
        "slug": "gornja-stubica",
        "zip_code": "49245"
    }, {
        "name": "Marija Bistrica",
        "slug": "marija-bistrica",
        "zip_code": "49246"
    }, {
        "name": "Zlatar Bistrica",
        "slug": "zlatar-bistrica",
        "zip_code": "49247"
    }, {
        "name": "Zlatar",
        "slug": "zlatar",
        "zip_code": "49250"
    }, {
        "name": "Mače",
        "slug": "mace",
        "zip_code": "49251"
    }, {
        "name": "Mihovljan",
        "slug": "mihovljan",
        "zip_code": "49252"
    }, {
        "name": "Lobor",
        "slug": "lobor",
        "zip_code": "49253"
    }, {
        "name": "Belec",
        "slug": "belec",
        "zip_code": "49254"
    }, {
        "name": "Novi Golubovec",
        "slug": "novi-golubovec",
        "zip_code": "49255"
    }, {
        "name": "Konjščina",
        "slug": "konjscina",
        "zip_code": "49282"
    }, {
        "name": "Hraščina-Trgovišće",
        "slug": "hrascina-trgovisce",
        "zip_code": "49283"
    }, {
        "name": "Budinšćina",
        "slug": "budinscina",
        "zip_code": "49284"
    }, {
        "name": "Klanjec",
        "slug": "klanjec",
        "zip_code": "49290"
    }, {
        "name": "Kraljevec na Sutli",
        "slug": "kraljevec-na-sutli",
        "zip_code": "49294"
    }, {
        "name": "Kumrovec",
        "slug": "kumrovec",
        "zip_code": "49295"
    }, {
        "name": "Zagorska Sela",
        "slug": "zagorska-sela",
        "zip_code": "49296"
    }]
}, {
    "name": "Sisačko-moslavačka",
    "slug": "sisacko-moslavacka",
    "cities": [{
        "name": "Sisak",
        "slug": "sisak",
        "zip_code": "44000"
    }, {
        "name": "Sisak-Caprag",
        "slug": "sisak-caprag",
        "zip_code": "44010"
    }, {
        "name": "Martinska Ves",
        "slug": "martinska-ves",
        "zip_code": "44201"
    }, {
        "name": "Topolovac",
        "slug": "topolovac",
        "zip_code": "44202"
    }, {
        "name": "Gušće",
        "slug": "gusce",
        "zip_code": "44203"
    }, {
        "name": "Jabukovac",
        "slug": "jabukovac",
        "zip_code": "44204"
    }, {
        "name": "Sunja",
        "slug": "sunja",
        "zip_code": "44210"
    }, {
        "name": "Blinjski Kut",
        "slug": "blinjski-kut",
        "zip_code": "44211"
    }, {
        "name": "Kratečko",
        "slug": "kratecko",
        "zip_code": "44213"
    }, {
        "name": "Petrinja",
        "slug": "petrinja",
        "zip_code": "44250"
    }, {
        "name": "Mošćenica",
        "slug": "moscenica",
        "zip_code": "44253"
    }, {
        "name": "Lekenik",
        "slug": "lekenik",
        "zip_code": "44272"
    }, {
        "name": "Sela",
        "slug": "sela",
        "zip_code": "44273"
    }, {
        "name": "Velika Ludina",
        "slug": "velika-ludina",
        "zip_code": "44316"
    }, {
        "name": "Popovača",
        "slug": "popovaca",
        "zip_code": "44317"
    }, {
        "name": "Voloder",
        "slug": "voloder",
        "zip_code": "44318"
    }, {
        "name": "Kutina",
        "slug": "kutina",
        "zip_code": "44320"
    }, {
        "name": "Banova Jaruga",
        "slug": "banova-jaruga",
        "zip_code": "44321"
    }, {
        "name": "Lipovljani",
        "slug": "lipovljani",
        "zip_code": "44322"
    }, {
        "name": "Rajić",
        "slug": "rajic",
        "zip_code": "44323"
    }, {
        "name": "Jasenovac",
        "slug": "jasenovac",
        "zip_code": "44324"
    }, {
        "name": "Krapje",
        "slug": "krapje",
        "zip_code": "44325"
    }, {
        "name": "Novska",
        "slug": "novska",
        "zip_code": "44330"
    }, {
        "name": "Glina",
        "slug": "glina",
        "zip_code": "44400"
    }, {
        "name": "Gvozd",
        "slug": "gvozd",
        "zip_code": "44410"
    }, {
        "name": "Topusko",
        "slug": "topusko",
        "zip_code": "44415"
    }, {
        "name": "Hrvatska Kostajnica",
        "slug": "hrvatska-kostajnica",
        "zip_code": "44430"
    }, {
        "name": "Donji Kukuruzari",
        "slug": "donji-kukuruzari",
        "zip_code": "44431"
    }, {
        "name": "Divuša",
        "slug": "divusa",
        "zip_code": "44435"
    }, {
        "name": "Dvor",
        "slug": "dvor",
        "zip_code": "44440"
    }, {
        "name": "Hrvatska Dubica",
        "slug": "hrvatska-dubica",
        "zip_code": "44450"
    }]
}, {
    "name": "Karlovačka",
    "slug": "karlovacka",
    "cities": [{
        "name": "Karlovac",
        "slug": "karlovac",
        "zip_code": "47000"
    }, {
        "name": "Draganići",
        "slug": "draganici",
        "zip_code": "47201"
    }, {
        "name": "Rečica",
        "slug": "recica",
        "zip_code": "47203"
    }, {
        "name": "Šišljavić",
        "slug": "sisljavic",
        "zip_code": "47204"
    }, {
        "name": "Lasinja",
        "slug": "lasinja",
        "zip_code": "47206"
    }, {
        "name": "Skakavac",
        "slug": "skakavac",
        "zip_code": "47212"
    }, {
        "name": "Vojnić",
        "slug": "vojnic",
        "zip_code": "47220"
    }, {
        "name": "Cetingrad",
        "slug": "cetingrad",
        "zip_code": "47222"
    }, {
        "name": "Slunj",
        "slug": "slunj",
        "zip_code": "47240"
    }, {
        "name": "Cerovac Vukmanički",
        "slug": "cerovac-vukmanicki",
        "zip_code": "47241"
    }, {
        "name": "Krnjak",
        "slug": "krnjak",
        "zip_code": "47242"
    }, {
        "name": "Rakovica",
        "slug": "rakovica",
        "zip_code": "47245"
    }, {
        "name": "Drežnik Grad",
        "slug": "dreznik-grad",
        "zip_code": "47246"
    }, {
        "name": "Duga Resa",
        "slug": "duga-resa",
        "zip_code": "47250"
    }, {
        "name": "Bosiljevo",
        "slug": "bosiljevo",
        "zip_code": "47251"
    }, {
        "name": "Barilović",
        "slug": "barilovic",
        "zip_code": "47252"
    }, {
        "name": "Zvečaj",
        "slug": "zvecaj",
        "zip_code": "47261"
    }, {
        "name": "Generalski Stol",
        "slug": "generalski-stol",
        "zip_code": "47262"
    }, {
        "name": "Tounj",
        "slug": "tounj",
        "zip_code": "47264"
    }, {
        "name": "Netretić",
        "slug": "netretic",
        "zip_code": "47271"
    }, {
        "name": "Ribnik",
        "slug": "ribnik",
        "zip_code": "47272"
    }, {
        "name": "Žakanje",
        "slug": "zakanje",
        "zip_code": "47276"
    }, {
        "name": "Ozalj",
        "slug": "ozalj",
        "zip_code": "47280"
    }, {
        "name": "Mali Erjavec",
        "slug": "mali-erjavec",
        "zip_code": "47281"
    }, {
        "name": "Kamanje",
        "slug": "kamanje",
        "zip_code": "47282"
    }, {
        "name": "Vivodina",
        "slug": "vivodina",
        "zip_code": "47283"
    }, {
        "name": "Kašt",
        "slug": "kast",
        "zip_code": "47284"
    }, {
        "name": "Radatovići",
        "slug": "radatovici",
        "zip_code": "47285"
    }, {
        "name": "Mahično",
        "slug": "mahicno",
        "zip_code": "47286"
    }, {
        "name": "Ogulin",
        "slug": "ogulin",
        "zip_code": "47300"
    }, {
        "name": "Oštarije",
        "slug": "ostarije",
        "zip_code": "47302"
    }, {
        "name": "Josipdol",
        "slug": "josipdol",
        "zip_code": "47303"
    }, {
        "name": "Plaški",
        "slug": "plaski",
        "zip_code": "47304"
    }, {
        "name": "Saborsko",
        "slug": "saborsko",
        "zip_code": "47306"
    }, {
        "name": "Gornje Zagorje",
        "slug": "gornje-zagorje",
        "zip_code": "47307"
    }, {
        "name": "Drežnica",
        "slug": "dreznica",
        "zip_code": "47313"
    }, {
        "name": "Jasenak",
        "slug": "jasenak",
        "zip_code": "47314"
    }]
}, {
    "name": "Varaždinska",
    "slug": "varazdinska",
    "cities": [{
        "name": "Varaždin",
        "slug": "varazdin",
        "zip_code": "42000"
    }, {
        "name": "Beretinec",
        "slug": "beretinec",
        "zip_code": "42201"
    }, {
        "name": "Trnovec Bartolovečki",
        "slug": "trnovec-bartolovecki",
        "zip_code": "42202"
    }, {
        "name": "Jalžabet",
        "slug": "jalzabet",
        "zip_code": "42203"
    }, {
        "name": "Turčin",
        "slug": "turcin",
        "zip_code": "42204"
    }, {
        "name": "Vidovec",
        "slug": "vidovec",
        "zip_code": "42205"
    }, {
        "name": "Petrijanec",
        "slug": "petrijanec",
        "zip_code": "42206"
    }, {
        "name": "Vinica",
        "slug": "vinica",
        "zip_code": "42207"
    }, {
        "name": "Cestica",
        "slug": "cestica",
        "zip_code": "42208"
    }, {
        "name": "Sračinec",
        "slug": "sracinec",
        "zip_code": "42209"
    }, {
        "name": "Sveti Ilija",
        "slug": "sveti-ilija",
        "zip_code": "42214"
    }, {
        "name": "Novi Marof",
        "slug": "novi-marof",
        "zip_code": "42220"
    }, {
        "name": "Ljubeščica",
        "slug": "ljubescica",
        "zip_code": "42222"
    }, {
        "name": "Varaždinske Toplice",
        "slug": "varazdinske-toplice",
        "zip_code": "42223"
    }, {
        "name": "Breznički Hum",
        "slug": "breznicki-hum",
        "zip_code": "42225"
    }, {
        "name": "Ludbreg",
        "slug": "ludbreg",
        "zip_code": "42230"
    }, {
        "name": "Mali Bukovec",
        "slug": "mali-bukovec",
        "zip_code": "42231"
    }, {
        "name": "Donji Martijanec",
        "slug": "donji-martijanec",
        "zip_code": "42232"
    }, {
        "name": "Sveti Đurđ",
        "slug": "sveti-durd",
        "zip_code": "42233"
    }, {
        "name": "Ivanec",
        "slug": "ivanec",
        "zip_code": "42240"
    }, {
        "name": "Radovan",
        "slug": "radovan",
        "zip_code": "42242"
    }, {
        "name": "Maruševec",
        "slug": "marusevec",
        "zip_code": "42243"
    }, {
        "name": "Klenovnik",
        "slug": "klenovnik",
        "zip_code": "42244"
    }, {
        "name": "Donja Voća",
        "slug": "donja-voca",
        "zip_code": "42245"
    }, {
        "name": "Lepoglava",
        "slug": "lepoglava",
        "zip_code": "42250"
    }, {
        "name": "Bednja",
        "slug": "bednja",
        "zip_code": "42253"
    }, {
        "name": "Trakošćan",
        "slug": "trakoscan",
        "zip_code": "42254"
    }, {
        "name": "Donja Višnjica",
        "slug": "donja-visnjica",
        "zip_code": "42255"
    }]
}, {
    "name": "Koprivničko-križevačka",
    "slug": "koprivnicko-krizevacka",
    "cities": [{
        "name": "Koprivnica",
        "slug": "koprivnica",
        "zip_code": "48000"
    }, {
        "name": "Sveti Ivan Žabno",
        "slug": "sveti-ivan-zabno",
        "zip_code": "48214"
    }, {
        "name": "Križevci",
        "slug": "krizevci",
        "zip_code": "48260"
    }, {
        "name": "Kloštar Vojakovački",
        "slug": "klostar-vojakovacki",
        "zip_code": "48264"
    }, {
        "name": "Raven",
        "slug": "raven",
        "zip_code": "48265"
    }, {
        "name": "Orehovec",
        "slug": "orehovec",
        "zip_code": "48267"
    }, {
        "name": "Gornja Rijeka",
        "slug": "gornja-rijeka",
        "zip_code": "48268"
    }, {
        "name": "Kalnik",
        "slug": "kalnik",
        "zip_code": "48269"
    }, {
        "name": "Sokolovac",
        "slug": "sokolovac",
        "zip_code": "48306"
    }, {
        "name": "Kunovec",
        "slug": "kunovec",
        "zip_code": "48311"
    }, {
        "name": "Rasinja",
        "slug": "rasinja",
        "zip_code": "48312"
    }, {
        "name": "Koprivnički Ivanec",
        "slug": "koprivnicki-ivanec",
        "zip_code": "48314"
    }, {
        "name": "Đelekovec",
        "slug": "delekovec",
        "zip_code": "48316"
    }, {
        "name": "Legrad",
        "slug": "legrad",
        "zip_code": "48317"
    }, {
        "name": "Peteranec",
        "slug": "peteranec",
        "zip_code": "48321"
    }, {
        "name": "Drnje",
        "slug": "drnje",
        "zip_code": "48322"
    }, {
        "name": "Hlebine",
        "slug": "hlebine",
        "zip_code": "48323"
    }, {
        "name": "Novigrad Podravski",
        "slug": "novigrad-podravski",
        "zip_code": "48325"
    }, {
        "name": "Virje",
        "slug": "virje",
        "zip_code": "48326"
    }, {
        "name": "Molve",
        "slug": "molve",
        "zip_code": "48327"
    }, {
        "name": "Gola",
        "slug": "gola",
        "zip_code": "48331"
    }, {
        "name": "Ždala",
        "slug": "zdala",
        "zip_code": "48332"
    }, {
        "name": "Đurđevac",
        "slug": "durdevac",
        "zip_code": "48350"
    }, {
        "name": "Novo Virje",
        "slug": "novo-virje",
        "zip_code": "48355"
    }, {
        "name": "Ferdinandovac",
        "slug": "ferdinandovac",
        "zip_code": "48356"
    }, {
        "name": "Kalinovac",
        "slug": "kalinovac",
        "zip_code": "48361"
    }, {
        "name": "Kloštar Podravski",
        "slug": "klostar-podravski",
        "zip_code": "48362"
    }, {
        "name": "Podravske Sesvete",
        "slug": "podravske-sesvete",
        "zip_code": "48363"
    }]
}, {
    "name": "Bjelovarsko-bilogorska",
    "slug": "bjelovarsko-bilogorska",
    "cities": [{
        "name": "Bjelovar",
        "slug": "bjelovar",
        "zip_code": "43000"
    }, {
        "name": "Zrinski Topolovac",
        "slug": "zrinski-topolovac",
        "zip_code": "43202"
    }, {
        "name": "Kapela",
        "slug": "kapela",
        "zip_code": "43203"
    }, {
        "name": "Predavac",
        "slug": "predavac",
        "zip_code": "43211"
    }, {
        "name": "Rovišće",
        "slug": "rovisce",
        "zip_code": "43212"
    }, {
        "name": "Veliko Trojstvo",
        "slug": "veliko-trojstvo",
        "zip_code": "43226"
    }, {
        "name": "Šandrovac",
        "slug": "sandrovac",
        "zip_code": "43227"
    }, {
        "name": "Ivanska",
        "slug": "ivanska",
        "zip_code": "43231"
    }, {
        "name": "Berek",
        "slug": "berek",
        "zip_code": "43232"
    }, {
        "name": "Trnovitički Popovac",
        "slug": "trnoviticki-popovac",
        "zip_code": "43233"
    }, {
        "name": "Čazma",
        "slug": "cazma",
        "zip_code": "43240"
    }, {
        "name": "Štefanje",
        "slug": "stefanje",
        "zip_code": "43246"
    }, {
        "name": "Narta",
        "slug": "narta",
        "zip_code": "43247"
    }, {
        "name": "Gudovac",
        "slug": "gudovac",
        "zip_code": "43251"
    }, {
        "name": "Prgomelje",
        "slug": "prgomelje",
        "zip_code": "43252"
    }, {
        "name": "Veliki Grđevac",
        "slug": "veliki-grdevac",
        "zip_code": "43270"
    }, {
        "name": "Nova Rača",
        "slug": "nova-raca",
        "zip_code": "43272"
    }, {
        "name": "Bulinac",
        "slug": "bulinac",
        "zip_code": "43273"
    }, {
        "name": "Severin",
        "slug": "severin",
        "zip_code": "43274"
    }, {
        "name": "Garešnica",
        "slug": "garesnica",
        "zip_code": "43280"
    }, {
        "name": "Veliko Vukovje",
        "slug": "veliko-vukovje",
        "zip_code": "43282"
    }, {
        "name": "Kaniška Iva",
        "slug": "kaniska-iva",
        "zip_code": "43283"
    }, {
        "name": "Hercegovac",
        "slug": "hercegovac",
        "zip_code": "43284"
    }, {
        "name": "Grubišno Polje",
        "slug": "grubisno-polje",
        "zip_code": "43290"
    }, {
        "name": "Veliki Zdenci",
        "slug": "veliki-zdenci",
        "zip_code": "43293"
    }, {
        "name": "Daruvar",
        "slug": "daruvar",
        "zip_code": "43500"
    }, {
        "name": "Končanica (Končenice)",
        "slug": "koncanica-koncenice",
        "zip_code": "43505"
    }, {
        "name": "Dežanovac",
        "slug": "dezanovac",
        "zip_code": "43506"
    }, {
        "name": "Uljanik",
        "slug": "uljanik",
        "zip_code": "43507"
    }, {
        "name": "Veliki Bastaji",
        "slug": "veliki-bastaji",
        "zip_code": "43531"
    }, {
        "name": "Đulovac",
        "slug": "dulovac",
        "zip_code": "43532"
    }, {
        "name": "Sirač",
        "slug": "sirac",
        "zip_code": "43541"
    }]
}, {
    "name": "Primorsko-goranska",
    "slug": "primorsko-goranska",
    "cities": [{
        "name": "Rijeka",
        "slug": "rijeka",
        "zip_code": "51000"
    }, {
        "name": "Matulji",
        "slug": "matulji",
        "zip_code": "51211"
    }, {
        "name": "Vele Mune",
        "slug": "vele-mune",
        "zip_code": "51212"
    }, {
        "name": "Jurdani",
        "slug": "jurdani",
        "zip_code": "51213"
    }, {
        "name": "Šapjane",
        "slug": "sapjane",
        "zip_code": "51214"
    }, {
        "name": "Kastav",
        "slug": "kastav",
        "zip_code": "51215"
    }, {
        "name": "Viškovo",
        "slug": "viskovo",
        "zip_code": "51216"
    }, {
        "name": "Klana",
        "slug": "klana",
        "zip_code": "51217"
    }, {
        "name": "Dražice",
        "slug": "drazice",
        "zip_code": "51218"
    }, {
        "name": "Kostrena",
        "slug": "kostrena",
        "zip_code": "51221"
    }, {
        "name": "Bakar",
        "slug": "bakar",
        "zip_code": "51222"
    }, {
        "name": "Škrljevo",
        "slug": "skrljevo",
        "zip_code": "51223"
    }, {
        "name": "Krasica",
        "slug": "krasica",
        "zip_code": "51224"
    }, {
        "name": "Praputnjak",
        "slug": "praputnjak",
        "zip_code": "51225"
    }, {
        "name": "Hreljin",
        "slug": "hreljin",
        "zip_code": "51226"
    }, {
        "name": "Kukuljanovo",
        "slug": "kukuljanovo",
        "zip_code": "51227"
    }, {
        "name": "Križišće",
        "slug": "krizisce",
        "zip_code": "51241"
    }, {
        "name": "Drivenik",
        "slug": "drivenik",
        "zip_code": "51242"
    }, {
        "name": "Tribalj",
        "slug": "tribalj",
        "zip_code": "51243"
    }, {
        "name": "Grižane",
        "slug": "grizane",
        "zip_code": "51244"
    }, {
        "name": "Novi Vinodolski",
        "slug": "novi-vinodolski",
        "zip_code": "51250"
    }, {
        "name": "Ledenice",
        "slug": "ledenice",
        "zip_code": "51251"
    }, {
        "name": "Klenovica",
        "slug": "klenovica",
        "zip_code": "51252"
    }, {
        "name": "Bribir",
        "slug": "bribir",
        "zip_code": "51253"
    }, {
        "name": "Crikvenica",
        "slug": "crikvenica",
        "zip_code": "51260"
    }, {
        "name": "Bakarac",
        "slug": "bakarac",
        "zip_code": "51261"
    }, {
        "name": "Kraljevica",
        "slug": "kraljevica",
        "zip_code": "51262"
    }, {
        "name": "Šmrika",
        "slug": "smrika",
        "zip_code": "51263"
    }, {
        "name": "Jadranovo",
        "slug": "jadranovo",
        "zip_code": "51264"
    }, {
        "name": "Dramalj",
        "slug": "dramalj",
        "zip_code": "51265"
    }, {
        "name": "Selce",
        "slug": "selce",
        "zip_code": "51266"
    }, {
        "name": "Rab",
        "slug": "rab",
        "zip_code": "51280"
    }, {
        "name": "Lopar",
        "slug": "lopar",
        "zip_code": "51281"
    }, {
        "name": "Delnice",
        "slug": "delnice",
        "zip_code": "51300"
    }, {
        "name": "Brod na Kupi",
        "slug": "brod-na-kupi",
        "zip_code": "51301"
    }, {
        "name": "Kuželj",
        "slug": "kuzelj",
        "zip_code": "51302"
    }, {
        "name": "Plešce",
        "slug": "plesce",
        "zip_code": "51303"
    }, {
        "name": "Gerovo",
        "slug": "gerovo",
        "zip_code": "51304"
    }, {
        "name": "Tršće",
        "slug": "trsce",
        "zip_code": "51305"
    }, {
        "name": "Čabar",
        "slug": "cabar",
        "zip_code": "51306"
    }, {
        "name": "Prezid",
        "slug": "prezid",
        "zip_code": "51307"
    }, {
        "name": "Skrad",
        "slug": "skrad",
        "zip_code": "51311"
    }, {
        "name": "Brod Moravice",
        "slug": "brod-moravice",
        "zip_code": "51312"
    }, {
        "name": "Kupjak",
        "slug": "kupjak",
        "zip_code": "51313"
    }, {
        "name": "Ravna Gora",
        "slug": "ravna-gora",
        "zip_code": "51314"
    }, {
        "name": "Mrkopalj",
        "slug": "mrkopalj",
        "zip_code": "51315"
    }, {
        "name": "Lokve",
        "slug": "lokve",
        "zip_code": "51316"
    }, {
        "name": "Crni Lug",
        "slug": "crni-lug",
        "zip_code": "51317"
    }, {
        "name": "Fužine",
        "slug": "fuzine",
        "zip_code": "51322"
    }, {
        "name": "Lič",
        "slug": "lic",
        "zip_code": "51323"
    }, {
        "name": "Zlobin",
        "slug": "zlobin",
        "zip_code": "51324"
    }, {
        "name": "Moravice",
        "slug": "moravice",
        "zip_code": "51325"
    }, {
        "name": "Vrbovsko",
        "slug": "vrbovsko",
        "zip_code": "51326"
    }, {
        "name": "Gomirje",
        "slug": "gomirje",
        "zip_code": "51327"
    }, {
        "name": "Lukovdol",
        "slug": "lukovdol",
        "zip_code": "51328"
    }, {
        "name": "Severin na Kupi",
        "slug": "severin-na-kupi",
        "zip_code": "51329"
    }, {
        "name": "Opatija",
        "slug": "opatija",
        "zip_code": "51410"
    }, {
        "name": "Ičići",
        "slug": "icici",
        "zip_code": "51414"
    }, {
        "name": "Lovran",
        "slug": "lovran",
        "zip_code": "51415"
    }, {
        "name": "Mošćenička Draga",
        "slug": "moscenicka-draga",
        "zip_code": "51417"
    }, {
        "name": "Brseč",
        "slug": "brsec",
        "zip_code": "51418"
    }, {
        "name": "Krk",
        "slug": "krk",
        "zip_code": "51500"
    }, {
        "name": "Malinska",
        "slug": "malinska",
        "zip_code": "51511"
    }, {
        "name": "Njivice",
        "slug": "njivice",
        "zip_code": "51512"
    }, {
        "name": "Omišalj",
        "slug": "omisalj",
        "zip_code": "51513"
    }, {
        "name": "Dobrinj",
        "slug": "dobrinj",
        "zip_code": "51514"
    }, {
        "name": "Šilo",
        "slug": "silo",
        "zip_code": "51515"
    }, {
        "name": "Vrbnik",
        "slug": "vrbnik",
        "zip_code": "51516"
    }, {
        "name": "Kornić",
        "slug": "kornic",
        "zip_code": "51517"
    }, {
        "name": "Punat",
        "slug": "punat",
        "zip_code": "51521"
    }, {
        "name": "Draga Bašćanska",
        "slug": "draga-bascanska",
        "zip_code": "51522"
    }, {
        "name": "Baška",
        "slug": "baska",
        "zip_code": "51523"
    }, {
        "name": "Mali Lošinj",
        "slug": "mali-losinj",
        "zip_code": "51550"
    }, {
        "name": "Veli Lošinj",
        "slug": "veli-losinj",
        "zip_code": "51551"
    }, {
        "name": "Ilovik",
        "slug": "ilovik",
        "zip_code": "51552"
    }, {
        "name": "Nerezine",
        "slug": "nerezine",
        "zip_code": "51554"
    }, {
        "name": "Belej",
        "slug": "belej",
        "zip_code": "51555"
    }, {
        "name": "Martinšćica",
        "slug": "martinscica",
        "zip_code": "51556"
    }, {
        "name": "Cres",
        "slug": "cres",
        "zip_code": "51557"
    }, {
        "name": "Beli",
        "slug": "beli",
        "zip_code": "51559"
    }, {
        "name": "Susak",
        "slug": "susak",
        "zip_code": "51561"
    }, {
        "name": "Unije",
        "slug": "unije",
        "zip_code": "51562"
    }, {
        "name": "Ćunski",
        "slug": "cunski",
        "zip_code": "51564"
    }]
}, {
    "name": "Ličko-senjska",
    "slug": "licko-senjska",
    "cities": [{
        "name": "Gospić",
        "slug": "gospic",
        "zip_code": "53000"
    }, {
        "name": "Lički Osik",
        "slug": "licki-osik",
        "zip_code": "53201"
    }, {
        "name": "Perušić",
        "slug": "perusic",
        "zip_code": "53202"
    }, {
        "name": "Kosinj",
        "slug": "kosinj",
        "zip_code": "53203"
    }, {
        "name": "Brušane",
        "slug": "brusane",
        "zip_code": "53206"
    }, {
        "name": "Smiljan",
        "slug": "smiljan",
        "zip_code": "53211"
    }, {
        "name": "Klanac",
        "slug": "klanac",
        "zip_code": "53212"
    }, {
        "name": "Donje Pazarište",
        "slug": "donje-pazariste",
        "zip_code": "53213"
    }, {
        "name": "Otočac",
        "slug": "otocac",
        "zip_code": "53220"
    }, {
        "name": "Vrhovine",
        "slug": "vrhovine",
        "zip_code": "53223"
    }, {
        "name": "Ličko Lešće",
        "slug": "licko-lesce",
        "zip_code": "53224"
    }, {
        "name": "Korenica",
        "slug": "korenica",
        "zip_code": "53230"
    }, {
        "name": "Plitvička Jezera",
        "slug": "plitvicka-jezera",
        "zip_code": "53231"
    }, {
        "name": "Ličko Petrovo Selo",
        "slug": "licko-petrovo-selo",
        "zip_code": "53233"
    }, {
        "name": "Udbina",
        "slug": "udbina",
        "zip_code": "53234"
    }, {
        "name": "Podlapača",
        "slug": "podlapaca",
        "zip_code": "53236"
    }, {
        "name": "Lovinac",
        "slug": "lovinac",
        "zip_code": "53244"
    }, {
        "name": "Donji Lapac",
        "slug": "donji-lapac",
        "zip_code": "53250"
    }, {
        "name": "Brinje",
        "slug": "brinje",
        "zip_code": "53260"
    }, {
        "name": "Križpolje",
        "slug": "krizpolje",
        "zip_code": "53261"
    }, {
        "name": "Jezerane",
        "slug": "jezerane",
        "zip_code": "53262"
    }, {
        "name": "Senj",
        "slug": "senj",
        "zip_code": "53270"
    }, {
        "name": "Krivi Put",
        "slug": "krivi-put",
        "zip_code": "53271"
    }, {
        "name": "Vratnik",
        "slug": "vratnik",
        "zip_code": "53273"
    }, {
        "name": "Krasno",
        "slug": "krasno",
        "zip_code": "53274"
    }, {
        "name": "Sveti Juraj",
        "slug": "sveti-juraj",
        "zip_code": "53284"
    }, {
        "name": "Jablanac",
        "slug": "jablanac",
        "zip_code": "53287"
    }, {
        "name": "Karlobag",
        "slug": "karlobag",
        "zip_code": "53288"
    }, {
        "name": "Lukovo Šugarje",
        "slug": "lukovo-sugarje",
        "zip_code": "53289"
    }, {
        "name": "Novalja",
        "slug": "novalja",
        "zip_code": "53291"
    }, {
        "name": "Lun",
        "slug": "lun",
        "zip_code": "53294"
    }, {
        "name": "Zubovići",
        "slug": "zubovici",
        "zip_code": "53296"
    }]
}, {
    "name": "Virovitičko-podravska",
    "slug": "viroviticko-podravska",
    "cities": [{
        "name": "Virovitica",
        "slug": "virovitica",
        "zip_code": "33000"
    }, {
        "name": "Špišić Bukovica",
        "slug": "spisic-bukovica",
        "zip_code": "33404"
    }, {
        "name": "Pitomača",
        "slug": "pitomaca",
        "zip_code": "33405"
    }, {
        "name": "Lukač",
        "slug": "lukac",
        "zip_code": "33406"
    }, {
        "name": "Gornje Bazje",
        "slug": "gornje-bazje",
        "zip_code": "33407"
    }, {
        "name": "Suhopolje",
        "slug": "suhopolje",
        "zip_code": "33410"
    }, {
        "name": "Gradina",
        "slug": "gradina",
        "zip_code": "33411"
    }, {
        "name": "Cabuna",
        "slug": "cabuna",
        "zip_code": "33412"
    }, {
        "name": "Crnac",
        "slug": "crnac",
        "zip_code": "33507"
    }, {
        "name": "Zdenci",
        "slug": "zdenci",
        "zip_code": "33513"
    }, {
        "name": "Čačinci",
        "slug": "cacinci",
        "zip_code": "33514"
    }, {
        "name": "Orahovica",
        "slug": "orahovica",
        "zip_code": "33515"
    }, {
        "name": "Mikleuš",
        "slug": "mikleus",
        "zip_code": "33517"
    }, {
        "name": "Nova Bukovica",
        "slug": "nova-bukovica",
        "zip_code": "33518"
    }, {
        "name": "Slatina",
        "slug": "slatina",
        "zip_code": "33520"
    }, {
        "name": "Voćin",
        "slug": "vocin",
        "zip_code": "33522"
    }, {
        "name": "Čađavica",
        "slug": "cadavica",
        "zip_code": "33523"
    }, {
        "name": "Sopje",
        "slug": "sopje",
        "zip_code": "33525"
    }, {
        "name": "Pivnica Slavonska",
        "slug": "pivnica-slavonska",
        "zip_code": "33533"
    }]
}, {
    "name": "Požeško-slavonska",
    "slug": "pozesko-slavonska",
    "cities": [{
        "name": "Požega",
        "slug": "pozega",
        "zip_code": "34000"
    }, {
        "name": "Jakšić",
        "slug": "jaksic",
        "zip_code": "34308"
    }, {
        "name": "Pleternica",
        "slug": "pleternica",
        "zip_code": "34310"
    }, {
        "name": "Kuzmica",
        "slug": "kuzmica",
        "zip_code": "34311"
    }, {
        "name": "Sesvete (kod Požege)",
        "slug": "sesvete-kod-pozege",
        "zip_code": "34312"
    }, {
        "name": "Ratkovica",
        "slug": "ratkovica",
        "zip_code": "34315"
    }, {
        "name": "Brestovac",
        "slug": "brestovac",
        "zip_code": "34322"
    }, {
        "name": "Velika",
        "slug": "velika",
        "zip_code": "34330"
    }, {
        "name": "Kaptol",
        "slug": "kaptol",
        "zip_code": "34334"
    }, {
        "name": "Vetovo",
        "slug": "vetovo",
        "zip_code": "34335"
    }, {
        "name": "Kutjevo",
        "slug": "kutjevo",
        "zip_code": "34340"
    }, {
        "name": "Bektež",
        "slug": "bektez",
        "zip_code": "34343"
    }, {
        "name": "Čaglin",
        "slug": "caglin",
        "zip_code": "34350"
    }, {
        "name": "Poljana",
        "slug": "poljana",
        "zip_code": "34543"
    }, {
        "name": "Pakrac",
        "slug": "pakrac",
        "zip_code": "34550"
    }, {
        "name": "Lipik",
        "slug": "lipik",
        "zip_code": "34551"
    }, {
        "name": "Badljevina",
        "slug": "badljevina",
        "zip_code": "34552"
    }, {
        "name": "Bučje",
        "slug": "bucje",
        "zip_code": "34553"
    }]
}, {
    "name": "Brodsko-posavska",
    "slug": "brodsko-posavska",
    "cities": [{
        "name": "Slavonski Brod",
        "slug": "slavonski-brod",
        "zip_code": "35000"
    }, {
        "name": "Slavonski Brod",
        "slug": "slavonski-brod",
        "zip_code": "35105"
    }, {
        "name": "Slavonski Brod",
        "slug": "slavonski-brod",
        "zip_code": "35106"
    }, {
        "name": "Podvinje",
        "slug": "podvinje",
        "zip_code": "35107"
    }, {
        "name": "Podcrkavlje",
        "slug": "podcrkavlje",
        "zip_code": "35201"
    }, {
        "name": "Gornja Vrba",
        "slug": "gornja-vrba",
        "zip_code": "35207"
    }, {
        "name": "Ruščica",
        "slug": "ruscica",
        "zip_code": "35208"
    }, {
        "name": "Bukovlje",
        "slug": "bukovlje",
        "zip_code": "35209"
    }, {
        "name": "Vrpolje",
        "slug": "vrpolje",
        "zip_code": "35210"
    }, {
        "name": "Trnjani",
        "slug": "trnjani",
        "zip_code": "35211"
    }, {
        "name": "Garčin",
        "slug": "garcin",
        "zip_code": "35212"
    }, {
        "name": "Oprisavci",
        "slug": "oprisavci",
        "zip_code": "35213"
    }, {
        "name": "Donji Andrijevci",
        "slug": "donji-andrijevci",
        "zip_code": "35214"
    }, {
        "name": "Prnjavor",
        "slug": "prnjavor",
        "zip_code": "35216"
    }, {
        "name": "Slavonski Šamac",
        "slug": "slavonski-samac",
        "zip_code": "35220"
    }, {
        "name": "Velika Kopanica",
        "slug": "velika-kopanica",
        "zip_code": "35221"
    }, {
        "name": "Gundinci",
        "slug": "gundinci",
        "zip_code": "35222"
    }, {
        "name": "Sikirevci",
        "slug": "sikirevci",
        "zip_code": "35224"
    }, {
        "name": "Oriovac",
        "slug": "oriovac",
        "zip_code": "35250"
    }, {
        "name": "Sibinj",
        "slug": "sibinj",
        "zip_code": "35252"
    }, {
        "name": "Brodski Stupnik",
        "slug": "brodski-stupnik",
        "zip_code": "35253"
    }, {
        "name": "Bebrina",
        "slug": "bebrina",
        "zip_code": "35254"
    }, {
        "name": "Slavonski Kobaš",
        "slug": "slavonski-kobas",
        "zip_code": "35255"
    }, {
        "name": "Lužani",
        "slug": "luzani",
        "zip_code": "35257"
    }, {
        "name": "Nova Gradiška",
        "slug": "nova-gradiska",
        "zip_code": "35400"
    }, {
        "name": "Rešetari",
        "slug": "resetari",
        "zip_code": "35403"
    }, {
        "name": "Cernik",
        "slug": "cernik",
        "zip_code": "35404"
    }, {
        "name": "Nova Kapela",
        "slug": "nova-kapela",
        "zip_code": "35410"
    }, {
        "name": "Vrbova",
        "slug": "vrbova",
        "zip_code": "35414"
    }, {
        "name": "Staro Petrovo Selo",
        "slug": "staro-petrovo-selo",
        "zip_code": "35420"
    }, {
        "name": "Zapolje",
        "slug": "zapolje",
        "zip_code": "35422"
    }, {
        "name": "Vrbje",
        "slug": "vrbje",
        "zip_code": "35423"
    }, {
        "name": "Orubica",
        "slug": "orubica",
        "zip_code": "35424"
    }, {
        "name": "Davor",
        "slug": "davor",
        "zip_code": "35425"
    }, {
        "name": "Dragalić",
        "slug": "dragalic",
        "zip_code": "35428"
    }, {
        "name": "Gornji Bogićevci",
        "slug": "gornji-bogicevci",
        "zip_code": "35429"
    }, {
        "name": "Okučani",
        "slug": "okucani",
        "zip_code": "35430"
    }, {
        "name": "Stara Gradiška",
        "slug": "stara-gradiska",
        "zip_code": "35435"
    }]
}, {
    "name": "Zadarska",
    "slug": "zadarska",
    "cities": [{
        "name": "Zadar",
        "slug": "zadar",
        "zip_code": "23000"
    }, {
        "name": "Bibinje",
        "slug": "bibinje",
        "zip_code": "23205"
    }, {
        "name": "Sukošan",
        "slug": "sukosan",
        "zip_code": "23206"
    }, {
        "name": "Sveti Filip i Jakov",
        "slug": "sveti-filip-i-jakov",
        "zip_code": "23207"
    }, {
        "name": "Biograd na moru",
        "slug": "biograd-na-moru",
        "zip_code": "23210"
    }, {
        "name": "Pakoštane",
        "slug": "pakostane",
        "zip_code": "23211"
    }, {
        "name": "Tkon",
        "slug": "tkon",
        "zip_code": "23212"
    }, {
        "name": "Zemunik",
        "slug": "zemunik",
        "zip_code": "23222"
    }, {
        "name": "Škabrnja",
        "slug": "skabrnja",
        "zip_code": "23223"
    }, {
        "name": "Pridraga",
        "slug": "pridraga",
        "zip_code": "23226"
    }, {
        "name": "Petrčane",
        "slug": "petrcane",
        "zip_code": "23231"
    }, {
        "name": "Nin",
        "slug": "nin",
        "zip_code": "23232"
    }, {
        "name": "Privlaka (Dalmacija)",
        "slug": "privlaka-dalmacija",
        "zip_code": "23233"
    }, {
        "name": "Vir",
        "slug": "vir",
        "zip_code": "23234"
    }, {
        "name": "Vrsi",
        "slug": "vrsi",
        "zip_code": "23235"
    }, {
        "name": "Poličnik",
        "slug": "policnik",
        "zip_code": "23241"
    }, {
        "name": "Posedarje",
        "slug": "posedarje",
        "zip_code": "23242"
    }, {
        "name": "Jasenice",
        "slug": "jasenice",
        "zip_code": "23243"
    }, {
        "name": "Starigrad Paklenica",
        "slug": "starigrad-paklenica",
        "zip_code": "23244"
    }, {
        "name": "Tribanj",
        "slug": "tribanj",
        "zip_code": "23245"
    }, {
        "name": "Vinjerac",
        "slug": "vinjerac",
        "zip_code": "23247"
    }, {
        "name": "Ražanac",
        "slug": "razanac",
        "zip_code": "23248"
    }, {
        "name": "Povljana",
        "slug": "povljana",
        "zip_code": "23249"
    }, {
        "name": "Pag",
        "slug": "pag",
        "zip_code": "23250"
    }, {
        "name": "Kolan",
        "slug": "kolan",
        "zip_code": "23251"
    }, {
        "name": "Pašman",
        "slug": "pasman",
        "zip_code": "23262"
    }, {
        "name": "Ždrelac",
        "slug": "zdrelac",
        "zip_code": "23263"
    }, {
        "name": "Neviđane",
        "slug": "nevidane",
        "zip_code": "23264"
    }, {
        "name": "Kukljica",
        "slug": "kukljica",
        "zip_code": "23271"
    }, {
        "name": "Kali",
        "slug": "kali",
        "zip_code": "23272"
    }, {
        "name": "Preko",
        "slug": "preko",
        "zip_code": "23273"
    }, {
        "name": "Lukoran",
        "slug": "lukoran",
        "zip_code": "23274"
    }, {
        "name": "Ugljan",
        "slug": "ugljan",
        "zip_code": "23275"
    }, {
        "name": "Sali",
        "slug": "sali",
        "zip_code": "23281"
    }, {
        "name": "Žman",
        "slug": "zman",
        "zip_code": "23282"
    }, {
        "name": "Rava",
        "slug": "rava",
        "zip_code": "23283"
    }, {
        "name": "Veli Iž",
        "slug": "veli-iz",
        "zip_code": "23284"
    }, {
        "name": "Brbinj",
        "slug": "brbinj",
        "zip_code": "23285"
    }, {
        "name": "Božava",
        "slug": "bozava",
        "zip_code": "23286"
    }, {
        "name": "Veli Rat",
        "slug": "veli-rat",
        "zip_code": "23287"
    }, {
        "name": "Sestrunj",
        "slug": "sestrunj",
        "zip_code": "23291"
    }, {
        "name": "Molat",
        "slug": "molat",
        "zip_code": "23292"
    }, {
        "name": "Ist",
        "slug": "ist",
        "zip_code": "23293"
    }, {
        "name": "Premuda",
        "slug": "premuda",
        "zip_code": "23294"
    }, {
        "name": "Silba",
        "slug": "silba",
        "zip_code": "23295"
    }, {
        "name": "Olib",
        "slug": "olib",
        "zip_code": "23296"
    }, {
        "name": "Novigrad (Dalmacija)",
        "slug": "novigrad-dalmacija",
        "zip_code": "23312"
    }, {
        "name": "Benkovac",
        "slug": "benkovac",
        "zip_code": "23420"
    }, {
        "name": "Stankovci",
        "slug": "stankovci",
        "zip_code": "23422"
    }, {
        "name": "Polača",
        "slug": "polaca",
        "zip_code": "23423"
    }, {
        "name": "Gračac",
        "slug": "gracac",
        "zip_code": "23440"
    }, {
        "name": "Srb",
        "slug": "srb",
        "zip_code": "23445"
    }, {
        "name": "Obrovac",
        "slug": "obrovac",
        "zip_code": "23450"
    }, {
        "name": "Karin",
        "slug": "karin",
        "zip_code": "23452"
    }]
}, {
    "name": "Osječko-baranjska",
    "slug": "osjecko-baranjska",
    "cities": [{
        "name": "Osijek",
        "slug": "osijek",
        "zip_code": "31000"
    }, {
        "name": "Bijelo Brdo",
        "slug": "bijelo-brdo",
        "zip_code": "31204"
    }, {
        "name": "Aljmaš",
        "slug": "aljmas",
        "zip_code": "31205"
    }, {
        "name": "Erdut",
        "slug": "erdut",
        "zip_code": "31206"
    }, {
        "name": "Tenja",
        "slug": "tenja",
        "zip_code": "31207"
    }, {
        "name": "Petrijevci",
        "slug": "petrijevci",
        "zip_code": "31208"
    }, {
        "name": "Laslovo (Szentlászló)",
        "slug": "laslovo-szentlaszlo",
        "zip_code": "31214"
    }, {
        "name": "Ernestinovo",
        "slug": "ernestinovo",
        "zip_code": "31215"
    }, {
        "name": "Antunovac",
        "slug": "antunovac",
        "zip_code": "31216"
    }, {
        "name": "Višnjevac",
        "slug": "visnjevac",
        "zip_code": "31220"
    }, {
        "name": "Josipovac",
        "slug": "josipovac",
        "zip_code": "31221"
    }, {
        "name": "Bizovac",
        "slug": "bizovac",
        "zip_code": "31222"
    }, {
        "name": "Brođanci",
        "slug": "brodanci",
        "zip_code": "31223"
    }, {
        "name": "Koška",
        "slug": "koska",
        "zip_code": "31224"
    }, {
        "name": "Breznica Našička",
        "slug": "breznica-nasicka",
        "zip_code": "31225"
    }, {
        "name": "Dalj",
        "slug": "dalj",
        "zip_code": "31226"
    }, {
        "name": "Zelčin",
        "slug": "zelcin",
        "zip_code": "31227"
    }, {
        "name": "Beli Manastir",
        "slug": "beli-manastir",
        "zip_code": "31300"
    }, {
        "name": "Branjin Vrh",
        "slug": "branjin-vrh",
        "zip_code": "31301"
    }, {
        "name": "Kneževo",
        "slug": "knezevo",
        "zip_code": "31302"
    }, {
        "name": "Popovac",
        "slug": "popovac",
        "zip_code": "31303"
    }, {
        "name": "Duboševica",
        "slug": "dubosevica",
        "zip_code": "31304"
    }, {
        "name": "Draž",
        "slug": "draz",
        "zip_code": "31305"
    }, {
        "name": "Batina",
        "slug": "batina",
        "zip_code": "31306"
    }, {
        "name": "Zmajevac (Vörösmart)",
        "slug": "zmajevac-vorosmart",
        "zip_code": "31307"
    }, {
        "name": "Suza (Csúza)",
        "slug": "suza-csuza",
        "zip_code": "31308"
    }, {
        "name": "Kneževi Vinogradi",
        "slug": "knezevi-vinogradi",
        "zip_code": "31309"
    }, {
        "name": "Karanac",
        "slug": "karanac",
        "zip_code": "31315"
    }, {
        "name": "Petlovac",
        "slug": "petlovac",
        "zip_code": "31321"
    }, {
        "name": "Baranjsko Petrovo Selo",
        "slug": "baranjsko-petrovo-selo",
        "zip_code": "31322"
    }, {
        "name": "Bolman",
        "slug": "bolman",
        "zip_code": "31323"
    }, {
        "name": "Jagodnjak",
        "slug": "jagodnjak",
        "zip_code": "31324"
    }, {
        "name": "Čeminac",
        "slug": "ceminac",
        "zip_code": "31325"
    }, {
        "name": "Darda",
        "slug": "darda",
        "zip_code": "31326"
    }, {
        "name": "Bilje",
        "slug": "bilje",
        "zip_code": "31327"
    }, {
        "name": "Lug (Laskó)",
        "slug": "lug-lasko",
        "zip_code": "31328"
    }, {
        "name": "Đakovo",
        "slug": "dakovo",
        "zip_code": "31400"
    }, {
        "name": "Viškovci",
        "slug": "viskovci",
        "zip_code": "31401"
    }, {
        "name": "Semeljci",
        "slug": "semeljci",
        "zip_code": "31402"
    }, {
        "name": "Vuka",
        "slug": "vuka",
        "zip_code": "31403"
    }, {
        "name": "Vladislavci",
        "slug": "vladislavci",
        "zip_code": "31404"
    }, {
        "name": "Strizivojna",
        "slug": "strizivojna",
        "zip_code": "31410"
    }, {
        "name": "Trnava",
        "slug": "trnava",
        "zip_code": "31411"
    }, {
        "name": "Selci Đakovački",
        "slug": "selci-dakovacki",
        "zip_code": "31415"
    }, {
        "name": "Levanjska Varoš",
        "slug": "levanjska-varos",
        "zip_code": "31416"
    }, {
        "name": "Piškorevci",
        "slug": "piskorevci",
        "zip_code": "31417"
    }, {
        "name": "Drenje",
        "slug": "drenje",
        "zip_code": "31418"
    }, {
        "name": "Satnica Đakovačka",
        "slug": "satnica-dakovacka",
        "zip_code": "31421"
    }, {
        "name": "Gorjani",
        "slug": "gorjani",
        "zip_code": "31422"
    }, {
        "name": "Bračevci",
        "slug": "bracevci",
        "zip_code": "31423"
    }, {
        "name": "Punitovci",
        "slug": "punitovci",
        "zip_code": "31424"
    }, {
        "name": "Čepin",
        "slug": "cepin",
        "zip_code": "31431"
    }, {
        "name": "Budimci",
        "slug": "budimci",
        "zip_code": "31432"
    }, {
        "name": "Podgorač",
        "slug": "podgorac",
        "zip_code": "31433"
    }, {
        "name": "Našice",
        "slug": "nasice",
        "zip_code": "31500"
    }, {
        "name": "Đurđenovac",
        "slug": "durdenovac",
        "zip_code": "31511"
    }, {
        "name": "Feričanci",
        "slug": "fericanci",
        "zip_code": "31512"
    }, {
        "name": "Donja Motičina",
        "slug": "donja-moticina",
        "zip_code": "31513"
    }, {
        "name": "Podravska Moslavina",
        "slug": "podravska-moslavina",
        "zip_code": "31530"
    }, {
        "name": "Viljevo",
        "slug": "viljevo",
        "zip_code": "31531"
    }, {
        "name": "Donji Miholjac",
        "slug": "donji-miholjac",
        "zip_code": "31540"
    }, {
        "name": "Magadenovac",
        "slug": "magadenovac",
        "zip_code": "31542"
    }, {
        "name": "Miholjački Poreč",
        "slug": "miholjacki-porec",
        "zip_code": "31543"
    }, {
        "name": "Valpovo",
        "slug": "valpovo",
        "zip_code": "31550"
    }, {
        "name": "Belišće",
        "slug": "belisce",
        "zip_code": "31551"
    }, {
        "name": "Podgajci Podravski",
        "slug": "podgajci-podravski",
        "zip_code": "31552"
    }, {
        "name": "Črnkovci",
        "slug": "crnkovci",
        "zip_code": "31553"
    }, {
        "name": "Gat",
        "slug": "gat",
        "zip_code": "31554"
    }, {
        "name": "Marijanci",
        "slug": "marijanci",
        "zip_code": "31555"
    }]
}, {
    "name": "Šibensko-kninska",
    "slug": "sibensko-kninska",
    "cities": [{
        "name": "Šibenik",
        "slug": "sibenik",
        "zip_code": "22000"
    }, {
        "name": "Šibenik-Zablaće",
        "slug": "sibenik-zablace",
        "zip_code": "22030"
    }, {
        "name": "Primošten",
        "slug": "primosten",
        "zip_code": "22202"
    }, {
        "name": "Rogoznica",
        "slug": "rogoznica",
        "zip_code": "22203"
    }, {
        "name": "Široke",
        "slug": "siroke",
        "zip_code": "22204"
    }, {
        "name": "Perković",
        "slug": "perkovic",
        "zip_code": "22205"
    }, {
        "name": "Boraja",
        "slug": "boraja",
        "zip_code": "22206"
    }, {
        "name": "Vodice",
        "slug": "vodice",
        "zip_code": "22211"
    }, {
        "name": "Tribunj",
        "slug": "tribunj",
        "zip_code": "22212"
    }, {
        "name": "Pirovac",
        "slug": "pirovac",
        "zip_code": "22213"
    }, {
        "name": "Čista Velika",
        "slug": "cista-velika",
        "zip_code": "22214"
    }, {
        "name": "Zaton",
        "slug": "zaton",
        "zip_code": "22215"
    }, {
        "name": "Lozovac",
        "slug": "lozovac",
        "zip_code": "22221"
    }, {
        "name": "Skradin",
        "slug": "skradin",
        "zip_code": "22222"
    }, {
        "name": "Zlarin",
        "slug": "zlarin",
        "zip_code": "22232"
    }, {
        "name": "Prvić Luka",
        "slug": "prvic-luka",
        "zip_code": "22233"
    }, {
        "name": "Prvić Šepurine",
        "slug": "prvic-sepurine",
        "zip_code": "22234"
    }, {
        "name": "Kaprije",
        "slug": "kaprije",
        "zip_code": "22235"
    }, {
        "name": "Žirje",
        "slug": "zirje",
        "zip_code": "22236"
    }, {
        "name": "Tisno",
        "slug": "tisno",
        "zip_code": "22240"
    }, {
        "name": "Jezera",
        "slug": "jezera",
        "zip_code": "22242"
    }, {
        "name": "Murter",
        "slug": "murter",
        "zip_code": "22243"
    }, {
        "name": "Betina",
        "slug": "betina",
        "zip_code": "22244"
    }, {
        "name": "Knin",
        "slug": "knin",
        "zip_code": "22300"
    }, {
        "name": "Golubić",
        "slug": "golubic",
        "zip_code": "22301"
    }, {
        "name": "Oklaj",
        "slug": "oklaj",
        "zip_code": "22303"
    }, {
        "name": "Kistanje",
        "slug": "kistanje",
        "zip_code": "22305"
    }, {
        "name": "Kijevo",
        "slug": "kijevo",
        "zip_code": "22310"
    }, {
        "name": "Drniš",
        "slug": "drnis",
        "zip_code": "22320"
    }, {
        "name": "Siverić",
        "slug": "siveric",
        "zip_code": "22321"
    }, {
        "name": "Ružić",
        "slug": "ruzic",
        "zip_code": "22322"
    }, {
        "name": "Unešić",
        "slug": "unesic",
        "zip_code": "22323"
    }, {
        "name": "Drinovci",
        "slug": "drinovci",
        "zip_code": "22324"
    }]
}, {
    "name": "Vukovarsko-srijemska",
    "slug": "vukovarsko-srijemska",
    "cities": [{
        "name": "Vukovar",
        "slug": "vukovar",
        "zip_code": "32000"
    }, {
        "name": "Vukovar - Lipovača",
        "slug": "vukovar-lipovaca",
        "zip_code": "32010"
    }, {
        "name": "Vinkovci",
        "slug": "vinkovci",
        "zip_code": "32100"
    }, {
        "name": "Ostrovo",
        "slug": "ostrovo",
        "zip_code": "32211"
    }, {
        "name": "Gaboš",
        "slug": "gabos",
        "zip_code": "32212"
    }, {
        "name": "Markušica",
        "slug": "markusica",
        "zip_code": "32213"
    }, {
        "name": "Tordinci",
        "slug": "tordinci",
        "zip_code": "32214"
    }, {
        "name": "Nuštar",
        "slug": "nustar",
        "zip_code": "32221"
    }, {
        "name": "Bršadin",
        "slug": "brsadin",
        "zip_code": "32222"
    }, {
        "name": "Trpinja",
        "slug": "trpinja",
        "zip_code": "32224"
    }, {
        "name": "Bobota",
        "slug": "bobota",
        "zip_code": "32225"
    }, {
        "name": "Borovo",
        "slug": "borovo",
        "zip_code": "32227"
    }, {
        "name": "Petrovci",
        "slug": "petrovci",
        "zip_code": "32229"
    }, {
        "name": "Sotin",
        "slug": "sotin",
        "zip_code": "32232"
    }, {
        "name": "Opatovac",
        "slug": "opatovac",
        "zip_code": "32233"
    }, {
        "name": "Šarengrad",
        "slug": "sarengrad",
        "zip_code": "32234"
    }, {
        "name": "Bapska",
        "slug": "bapska",
        "zip_code": "32235"
    }, {
        "name": "Ilok",
        "slug": "ilok",
        "zip_code": "32236"
    }, {
        "name": "Lovas",
        "slug": "lovas",
        "zip_code": "32237"
    }, {
        "name": "Čakovci",
        "slug": "cakovci",
        "zip_code": "32238"
    }, {
        "name": "Negoslavci",
        "slug": "negoslavci",
        "zip_code": "32239"
    }, {
        "name": "Stari Jankovci",
        "slug": "stari-jankovci",
        "zip_code": "32241"
    }, {
        "name": "Slakovci",
        "slug": "slakovci",
        "zip_code": "32242"
    }, {
        "name": "Orolik",
        "slug": "orolik",
        "zip_code": "32243"
    }, {
        "name": "Đeletovci",
        "slug": "deletovci",
        "zip_code": "32244"
    }, {
        "name": "Nijemci",
        "slug": "nijemci",
        "zip_code": "32245"
    }, {
        "name": "Lipovac",
        "slug": "lipovac",
        "zip_code": "32246"
    }, {
        "name": "Banovci",
        "slug": "banovci",
        "zip_code": "32247"
    }, {
        "name": "Ilača",
        "slug": "ilaca",
        "zip_code": "32248"
    }, {
        "name": "Tovarnik",
        "slug": "tovarnik",
        "zip_code": "32249"
    }, {
        "name": "Privlaka",
        "slug": "privlaka",
        "zip_code": "32251"
    }, {
        "name": "Otok",
        "slug": "otok",
        "zip_code": "32252"
    }, {
        "name": "Komletinci",
        "slug": "komletinci",
        "zip_code": "32253"
    }, {
        "name": "Vrbanja",
        "slug": "vrbanja",
        "zip_code": "32254"
    }, {
        "name": "Soljani",
        "slug": "soljani",
        "zip_code": "32255"
    }, {
        "name": "Strošinci",
        "slug": "strosinci",
        "zip_code": "32256"
    }, {
        "name": "Drenovci",
        "slug": "drenovci",
        "zip_code": "32257"
    }, {
        "name": "Posavski Podgajci",
        "slug": "posavski-podgajci",
        "zip_code": "32258"
    }, {
        "name": "Gunja",
        "slug": "gunja",
        "zip_code": "32260"
    }, {
        "name": "Rajevo Selo",
        "slug": "rajevo-selo",
        "zip_code": "32261"
    }, {
        "name": "Račinovci",
        "slug": "racinovci",
        "zip_code": "32262"
    }, {
        "name": "Đurići",
        "slug": "durici",
        "zip_code": "32263"
    }, {
        "name": "Županja",
        "slug": "zupanja",
        "zip_code": "32270"
    }, {
        "name": "Rokovci Andrijaševci",
        "slug": "rokovci-andrijasevci",
        "zip_code": "32271"
    }, {
        "name": "Cerna",
        "slug": "cerna",
        "zip_code": "32272"
    }, {
        "name": "Gradište",
        "slug": "gradiste",
        "zip_code": "32273"
    }, {
        "name": "Štitar",
        "slug": "stitar",
        "zip_code": "32274"
    }, {
        "name": "Bošnjaci",
        "slug": "bosnjaci",
        "zip_code": "32275"
    }, {
        "name": "Babina Greda",
        "slug": "babina-greda",
        "zip_code": "32276"
    }, {
        "name": "Jarmina",
        "slug": "jarmina",
        "zip_code": "32280"
    }, {
        "name": "Ivankovo",
        "slug": "ivankovo",
        "zip_code": "32281"
    }, {
        "name": "Retkovci",
        "slug": "retkovci",
        "zip_code": "32282"
    }, {
        "name": "Vođinci",
        "slug": "vodinci",
        "zip_code": "32283"
    }, {
        "name": "Stari Mikanovci",
        "slug": "stari-mikanovci",
        "zip_code": "32284"
    }]
}, {
    "name": "Splitsko-dalmatinska",
    "slug": "splitsko-dalmatinska",
    "cities": [{
        "name": "Split",
        "slug": "split",
        "zip_code": "21000"
    }, {
        "name": "Prgomet",
        "slug": "prgomet",
        "zip_code": "21201"
    }, {
        "name": "Lećevica",
        "slug": "lecevica",
        "zip_code": "21202"
    }, {
        "name": "Donji Muć",
        "slug": "donji-muc",
        "zip_code": "21203"
    }, {
        "name": "Dugopolje",
        "slug": "dugopolje",
        "zip_code": "21204"
    }, {
        "name": "Donji Dolac",
        "slug": "donji-dolac",
        "zip_code": "21205"
    }, {
        "name": "Donje Ogorje",
        "slug": "donje-ogorje",
        "zip_code": "21206"
    }, {
        "name": "Kostanje",
        "slug": "kostanje",
        "zip_code": "21207"
    }, {
        "name": "Kučiće",
        "slug": "kucice",
        "zip_code": "21208"
    }, {
        "name": "Mravince",
        "slug": "mravince",
        "zip_code": "21209"
    }, {
        "name": "Solin",
        "slug": "solin",
        "zip_code": "21210"
    }, {
        "name": "Kaštel Sućurac",
        "slug": "kastel-sucurac",
        "zip_code": "21212"
    }, {
        "name": "Kaštel Gomilica",
        "slug": "kastel-gomilica",
        "zip_code": "21213"
    }, {
        "name": "Kaštel Kambelovac",
        "slug": "kastel-kambelovac",
        "zip_code": "21214"
    }, {
        "name": "Kaštel Lukšić",
        "slug": "kastel-luksic",
        "zip_code": "21215"
    }, {
        "name": "Kaštel Stari",
        "slug": "kastel-stari",
        "zip_code": "21216"
    }, {
        "name": "Kaštel Štafilić",
        "slug": "kastel-stafilic",
        "zip_code": "21217"
    }, {
        "name": "Trogir",
        "slug": "trogir",
        "zip_code": "21220"
    }, {
        "name": "Marina",
        "slug": "marina",
        "zip_code": "21222"
    }, {
        "name": "Okrug Gornji",
        "slug": "okrug-gornji",
        "zip_code": "21223"
    }, {
        "name": "Slatine",
        "slug": "slatine",
        "zip_code": "21224"
    }, {
        "name": "Drvenik Veliki",
        "slug": "drvenik-veliki",
        "zip_code": "21225"
    }, {
        "name": "Vinišće",
        "slug": "vinisce",
        "zip_code": "21226"
    }, {
        "name": "Primorski Dolac",
        "slug": "primorski-dolac",
        "zip_code": "21227"
    }, {
        "name": "Blizna Donja",
        "slug": "blizna-donja",
        "zip_code": "21228"
    }, {
        "name": "Crivac",
        "slug": "crivac",
        "zip_code": "21229"
    }, {
        "name": "Sinj",
        "slug": "sinj",
        "zip_code": "21230"
    }, {
        "name": "Klis",
        "slug": "klis",
        "zip_code": "21231"
    }, {
        "name": "Dicmo",
        "slug": "dicmo",
        "zip_code": "21232"
    }, {
        "name": "Hrvace",
        "slug": "hrvace",
        "zip_code": "21233"
    }, {
        "name": "Vrlika",
        "slug": "vrlika",
        "zip_code": "21236"
    }, {
        "name": "Otok (Dalmacija)",
        "slug": "otok-dalmacija",
        "zip_code": "21238"
    }, {
        "name": "Trilj",
        "slug": "trilj",
        "zip_code": "21240"
    }, {
        "name": "Obrovac Sinjski",
        "slug": "obrovac-sinjski",
        "zip_code": "21241"
    }, {
        "name": "Grab",
        "slug": "grab",
        "zip_code": "21242"
    }, {
        "name": "Ugljane",
        "slug": "ugljane",
        "zip_code": "21243"
    }, {
        "name": "Cista Velika",
        "slug": "cista-velika",
        "zip_code": "21244"
    }, {
        "name": "Tijarica",
        "slug": "tijarica",
        "zip_code": "21245"
    }, {
        "name": "Aržano",
        "slug": "arzano",
        "zip_code": "21246"
    }, {
        "name": "Neorić",
        "slug": "neoric",
        "zip_code": "21247"
    }, {
        "name": "Šestanovac",
        "slug": "sestanovac",
        "zip_code": "21250"
    }, {
        "name": "Žrnovnica",
        "slug": "zrnovnica",
        "zip_code": "21251"
    }, {
        "name": "Tugare",
        "slug": "tugare",
        "zip_code": "21252"
    }, {
        "name": "Gata",
        "slug": "gata",
        "zip_code": "21253"
    }, {
        "name": "Blato na Cetini",
        "slug": "blato-na-cetini",
        "zip_code": "21254"
    }, {
        "name": "Zadvarje",
        "slug": "zadvarje",
        "zip_code": "21255"
    }, {
        "name": "Cista Provo",
        "slug": "cista-provo",
        "zip_code": "21256"
    }, {
        "name": "Lovreć",
        "slug": "lovrec",
        "zip_code": "21257"
    }, {
        "name": "Imotski",
        "slug": "imotski",
        "zip_code": "21260"
    }, {
        "name": "Runović",
        "slug": "runovic",
        "zip_code": "21261"
    }, {
        "name": "Kamenmost",
        "slug": "kamenmost",
        "zip_code": "21262"
    }, {
        "name": "Krivodol",
        "slug": "krivodol",
        "zip_code": "21263"
    }, {
        "name": "Donji Proložac",
        "slug": "donji-prolozac",
        "zip_code": "21264"
    }, {
        "name": "Studenci",
        "slug": "studenci",
        "zip_code": "21265"
    }, {
        "name": "Zmijavci",
        "slug": "zmijavci",
        "zip_code": "21266"
    }, {
        "name": "Ričice",
        "slug": "ricice",
        "zip_code": "21267"
    }, {
        "name": "Zagvozd",
        "slug": "zagvozd",
        "zip_code": "21270"
    }, {
        "name": "Grabovac",
        "slug": "grabovac",
        "zip_code": "21271"
    }, {
        "name": "Slivno",
        "slug": "slivno",
        "zip_code": "21272"
    }, {
        "name": "Župa",
        "slug": "zupa",
        "zip_code": "21273"
    }, {
        "name": "Dragljane",
        "slug": "dragljane",
        "zip_code": "21275"
    }, {
        "name": "Vrgorac",
        "slug": "vrgorac",
        "zip_code": "21276"
    }, {
        "name": "Veliki Prolog",
        "slug": "veliki-prolog",
        "zip_code": "21277"
    }, {
        "name": "Srinjine",
        "slug": "srinjine",
        "zip_code": "21292"
    }, {
        "name": "Makarska",
        "slug": "makarska",
        "zip_code": "21300"
    }, {
        "name": "Omiš",
        "slug": "omis",
        "zip_code": "21310"
    }, {
        "name": "Stobreč",
        "slug": "stobrec",
        "zip_code": "21311"
    }, {
        "name": "Podstrana",
        "slug": "podstrana",
        "zip_code": "21312"
    }, {
        "name": "Jesenice",
        "slug": "jesenice",
        "zip_code": "21314"
    }, {
        "name": "Dugi Rat",
        "slug": "dugi-rat",
        "zip_code": "21315"
    }, {
        "name": "Lokva Rogoznica",
        "slug": "lokva-rogoznica",
        "zip_code": "21317"
    }, {
        "name": "Mimice",
        "slug": "mimice",
        "zip_code": "21318"
    }, {
        "name": "Baška Voda",
        "slug": "baska-voda",
        "zip_code": "21320"
    }, {
        "name": "Brela",
        "slug": "brela",
        "zip_code": "21322"
    }, {
        "name": "Promajna",
        "slug": "promajna",
        "zip_code": "21323"
    }, {
        "name": "Tučepi",
        "slug": "tucepi",
        "zip_code": "21325"
    }, {
        "name": "Podgora",
        "slug": "podgora",
        "zip_code": "21327"
    }, {
        "name": "Drašnice",
        "slug": "drasnice",
        "zip_code": "21328"
    }, {
        "name": "Igrane",
        "slug": "igrane",
        "zip_code": "21329"
    }, {
        "name": "Gradac",
        "slug": "gradac",
        "zip_code": "21330"
    }, {
        "name": "Drvenik",
        "slug": "drvenik",
        "zip_code": "21333"
    }, {
        "name": "Zaostrog",
        "slug": "zaostrog",
        "zip_code": "21334"
    }, {
        "name": "Podaca",
        "slug": "podaca",
        "zip_code": "21335"
    }, {
        "name": "Supetar",
        "slug": "supetar",
        "zip_code": "21400"
    }, {
        "name": "Sutivan",
        "slug": "sutivan",
        "zip_code": "21403"
    }, {
        "name": "Ložišća",
        "slug": "lozisca",
        "zip_code": "21404"
    }, {
        "name": "Milna",
        "slug": "milna",
        "zip_code": "21405"
    }, {
        "name": "Postira",
        "slug": "postira",
        "zip_code": "21410"
    }, {
        "name": "Pučišća",
        "slug": "pucisca",
        "zip_code": "21412"
    }, {
        "name": "Povlja",
        "slug": "povlja",
        "zip_code": "21413"
    }, {
        "name": "Bol",
        "slug": "bol",
        "zip_code": "21420"
    }, {
        "name": "Nerežišća",
        "slug": "nerezisca",
        "zip_code": "21423"
    }, {
        "name": "Pražnica",
        "slug": "praznica",
        "zip_code": "21424"
    }, {
        "name": "Selca",
        "slug": "selca",
        "zip_code": "21425"
    }, {
        "name": "Grohote",
        "slug": "grohote",
        "zip_code": "21430"
    }, {
        "name": "Stomorska",
        "slug": "stomorska",
        "zip_code": "21432"
    }, {
        "name": "Hvar",
        "slug": "hvar",
        "zip_code": "21450"
    }, {
        "name": "Brusje",
        "slug": "brusje",
        "zip_code": "21454"
    }, {
        "name": "Stari Grad",
        "slug": "stari-grad",
        "zip_code": "21460"
    }, {
        "name": "Vrbanj",
        "slug": "vrbanj",
        "zip_code": "21462"
    }, {
        "name": "Vrboska",
        "slug": "vrboska",
        "zip_code": "21463"
    }, {
        "name": "Jelsa",
        "slug": "jelsa",
        "zip_code": "21465"
    }, {
        "name": "Zastražišće",
        "slug": "zastrazisce",
        "zip_code": "21466"
    }, {
        "name": "Gdinj",
        "slug": "gdinj",
        "zip_code": "21467"
    }, {
        "name": "Sućuraj",
        "slug": "sucuraj",
        "zip_code": "21469"
    }, {
        "name": "Vis",
        "slug": "vis",
        "zip_code": "21480"
    }, {
        "name": "Podšpilje",
        "slug": "podspilje",
        "zip_code": "21483"
    }, {
        "name": "Komiža",
        "slug": "komiza",
        "zip_code": "21485"
    }]
}, {
    "name": "Istarska",
    "slug": "istarska",
    "cities": [{
        "name": "Pazin",
        "slug": "pazin",
        "zip_code": "52000"
    }, {
        "name": "Pula (Pola)",
        "slug": "pula-pola",
        "zip_code": "52100"
    }, {
        "name": "Medulin",
        "slug": "medulin",
        "zip_code": "52203"
    }, {
        "name": "Ližnjan (Lisignano)",
        "slug": "liznjan-lisignano",
        "zip_code": "52204"
    }, {
        "name": "Marčana",
        "slug": "marcana",
        "zip_code": "52206"
    }, {
        "name": "Barban",
        "slug": "barban",
        "zip_code": "52207"
    }, {
        "name": "Krnica",
        "slug": "krnica",
        "zip_code": "52208"
    }, {
        "name": "Rovinj (Rovigno)",
        "slug": "rovinj-rovigno",
        "zip_code": "52210"
    }, {
        "name": "Bale (Valle)",
        "slug": "bale-valle",
        "zip_code": "52211"
    }, {
        "name": "Fažana (Fasana)",
        "slug": "fazana-fasana",
        "zip_code": "52212"
    }, {
        "name": "Vodnjan (Dignano)",
        "slug": "vodnjan-dignano",
        "zip_code": "52215"
    }, {
        "name": "Galižana (Gallesano)",
        "slug": "galizana-gallesano",
        "zip_code": "52216"
    }, {
        "name": "Labin",
        "slug": "labin",
        "zip_code": "52220"
    }, {
        "name": "Rabac",
        "slug": "rabac",
        "zip_code": "52221"
    }, {
        "name": "Koromačno",
        "slug": "koromacno",
        "zip_code": "52222"
    }, {
        "name": "Raša",
        "slug": "rasa",
        "zip_code": "52223"
    }, {
        "name": "Trget",
        "slug": "trget",
        "zip_code": "52224"
    }, {
        "name": "Nedešćina",
        "slug": "nedescina",
        "zip_code": "52231"
    }, {
        "name": "Kršan",
        "slug": "krsan",
        "zip_code": "52232"
    }, {
        "name": "Šušnjevica",
        "slug": "susnjevica",
        "zip_code": "52233"
    }, {
        "name": "Plomin",
        "slug": "plomin",
        "zip_code": "52234"
    }, {
        "name": "Pićan",
        "slug": "pican",
        "zip_code": "52332"
    }, {
        "name": "Podpićan",
        "slug": "podpican",
        "zip_code": "52333"
    }, {
        "name": "Žminj",
        "slug": "zminj",
        "zip_code": "52341"
    }, {
        "name": "Svetvinčenat",
        "slug": "svetvincenat",
        "zip_code": "52342"
    }, {
        "name": "Kanfanar",
        "slug": "kanfanar",
        "zip_code": "52352"
    }, {
        "name": "Cerovlje",
        "slug": "cerovlje",
        "zip_code": "52402"
    }, {
        "name": "Gračišće",
        "slug": "gracisce",
        "zip_code": "52403"
    }, {
        "name": "Sveti Petar u šumi",
        "slug": "sveti-petar-u-sumi",
        "zip_code": "52404"
    }, {
        "name": "Buzet",
        "slug": "buzet",
        "zip_code": "52420"
    }, {
        "name": "Lanišće",
        "slug": "lanisce",
        "zip_code": "52422"
    }, {
        "name": "Karojba",
        "slug": "karojba",
        "zip_code": "52423"
    }, {
        "name": "Motovun (Montana)",
        "slug": "motovun-montana",
        "zip_code": "52424"
    }, {
        "name": "Roč",
        "slug": "roc",
        "zip_code": "52425"
    }, {
        "name": "Lupoglav",
        "slug": "lupoglav",
        "zip_code": "52426"
    }, {
        "name": "Livade (Levade)",
        "slug": "livade-levade",
        "zip_code": "52427"
    }, {
        "name": "Oprtalj (Portole)",
        "slug": "oprtalj-portole",
        "zip_code": "52428"
    }, {
        "name": "Grožnjan (Grisignana)",
        "slug": "groznjan-grisignana",
        "zip_code": "52429"
    }, {
        "name": "Boljun",
        "slug": "boljun",
        "zip_code": "52434"
    }, {
        "name": "Poreč (Parenzo)",
        "slug": "porec-parenzo",
        "zip_code": "52440"
    }, {
        "name": "Tinjan",
        "slug": "tinjan",
        "zip_code": "52444"
    }, {
        "name": "Baderna",
        "slug": "baderna",
        "zip_code": "52445"
    }, {
        "name": "Nova Vas",
        "slug": "nova-vas",
        "zip_code": "52446"
    }, {
        "name": "Vižinada (Visinada)",
        "slug": "vizinada-visinada",
        "zip_code": "52447"
    }, {
        "name": "Sveti Lovreč",
        "slug": "sveti-lovrec",
        "zip_code": "52448"
    }, {
        "name": "Červar Porat",
        "slug": "cervar-porat",
        "zip_code": "52449"
    }, {
        "name": "Vrsar (Orsera)",
        "slug": "vrsar-orsera",
        "zip_code": "52450"
    }, {
        "name": "Funtana (Fontane)",
        "slug": "funtana-fontane",
        "zip_code": "52452"
    }, {
        "name": "Buje (Buie)",
        "slug": "buje-buie",
        "zip_code": "52460"
    }, {
        "name": "Momjan (Momiano)",
        "slug": "momjan-momiano",
        "zip_code": "52462"
    }, {
        "name": "Višnjan (Visignano)",
        "slug": "visnjan-visignano",
        "zip_code": "52463"
    }, {
        "name": "Kaštelir (Castelliere)",
        "slug": "kastelir-castelliere",
        "zip_code": "52464"
    }, {
        "name": "Tar (Torre)",
        "slug": "tar-torre",
        "zip_code": "52465"
    }, {
        "name": "Novigrad (Cittanova)",
        "slug": "novigrad-cittanova",
        "zip_code": "52466"
    }, {
        "name": "Umag (Umago)",
        "slug": "umag-umago",
        "zip_code": "52470"
    }, {
        "name": "Brtonigla (Verteneglio)",
        "slug": "brtonigla-verteneglio",
        "zip_code": "52474"
    }, {
        "name": "Savudrija (Salvore)",
        "slug": "savudrija-salvore",
        "zip_code": "52475"
    }]
}, {
    "name": "Dubrovačko-neretvanska",
    "slug": "dubrovacko-neretvanska",
    "cities": [{
        "name": "Dubrovnik",
        "slug": "dubrovnik",
        "zip_code": "20000"
    }, {
        "name": "Topolo",
        "slug": "topolo",
        "zip_code": "20205"
    }, {
        "name": "Mlini",
        "slug": "mlini",
        "zip_code": "20207"
    }, {
        "name": "Cavtat",
        "slug": "cavtat",
        "zip_code": "20210"
    }, {
        "name": "Čilipi",
        "slug": "cilipi",
        "zip_code": "20213"
    }, {
        "name": "Gruda",
        "slug": "gruda",
        "zip_code": "20215"
    }, {
        "name": "Dubravka",
        "slug": "dubravka",
        "zip_code": "20216"
    }, {
        "name": "Pridvorje",
        "slug": "pridvorje",
        "zip_code": "20217"
    }, {
        "name": "Pločice",
        "slug": "plocice",
        "zip_code": "20218"
    }, {
        "name": "Koločep",
        "slug": "kolocep",
        "zip_code": "20221"
    }, {
        "name": "Lopud",
        "slug": "lopud",
        "zip_code": "20222"
    }, {
        "name": "Šipanjska Luka",
        "slug": "sipanjska-luka",
        "zip_code": "20223"
    }, {
        "name": "Maranovići",
        "slug": "maranovici",
        "zip_code": "20224"
    }, {
        "name": "Babino Polje",
        "slug": "babino-polje",
        "zip_code": "20225"
    }, {
        "name": "Goveđari",
        "slug": "govedari",
        "zip_code": "20226"
    }, {
        "name": "Ston",
        "slug": "ston",
        "zip_code": "20230"
    }, {
        "name": "Doli",
        "slug": "doli",
        "zip_code": "20231"
    }, {
        "name": "Slano",
        "slug": "slano",
        "zip_code": "20232"
    }, {
        "name": "Trsteno",
        "slug": "trsteno",
        "zip_code": "20233"
    }, {
        "name": "Orašac",
        "slug": "orasac",
        "zip_code": "20234"
    }, {
        "name": "Zaton Veliki",
        "slug": "zaton-veliki",
        "zip_code": "20235"
    }, {
        "name": "Mokošica",
        "slug": "mokosica",
        "zip_code": "20236"
    }, {
        "name": "Trpanj",
        "slug": "trpanj",
        "zip_code": "20240"
    }, {
        "name": "Oskorušno",
        "slug": "oskorusno",
        "zip_code": "20242"
    }, {
        "name": "Kuna",
        "slug": "kuna",
        "zip_code": "20243"
    }, {
        "name": "Potomje",
        "slug": "potomje",
        "zip_code": "20244"
    }, {
        "name": "Trstenik",
        "slug": "trstenik",
        "zip_code": "20245"
    }, {
        "name": "Janjina",
        "slug": "janjina",
        "zip_code": "20246"
    }, {
        "name": "Žuljana",
        "slug": "zuljana",
        "zip_code": "20247"
    }, {
        "name": "Putniković",
        "slug": "putnikovic",
        "zip_code": "20248"
    }, {
        "name": "Orebić",
        "slug": "orebic",
        "zip_code": "20250"
    }, {
        "name": "Korčula",
        "slug": "korcula",
        "zip_code": "20260"
    }, {
        "name": "Lumbarda",
        "slug": "lumbarda",
        "zip_code": "20263"
    }, {
        "name": "Račišće",
        "slug": "racisce",
        "zip_code": "20264"
    }, {
        "name": "Kućište",
        "slug": "kuciste",
        "zip_code": "20267"
    }, {
        "name": "Lovište",
        "slug": "loviste",
        "zip_code": "20269"
    }, {
        "name": "Vela Luka",
        "slug": "vela-luka",
        "zip_code": "20270"
    }, {
        "name": "Blato",
        "slug": "blato",
        "zip_code": "20271"
    }, {
        "name": "Smokvica",
        "slug": "smokvica",
        "zip_code": "20272"
    }, {
        "name": "Čara",
        "slug": "cara",
        "zip_code": "20273"
    }, {
        "name": "Pupnat",
        "slug": "pupnat",
        "zip_code": "20274"
    }, {
        "name": "Žrnovo",
        "slug": "zrnovo",
        "zip_code": "20275"
    }, {
        "name": "Nova Sela",
        "slug": "nova-sela",
        "zip_code": "20278"
    }, {
        "name": "Lastovo",
        "slug": "lastovo",
        "zip_code": "20290"
    }, {
        "name": "Ploče",
        "slug": "ploce",
        "zip_code": "20340"
    }, {
        "name": "Kula Norinska",
        "slug": "kula-norinska",
        "zip_code": "20341"
    }, {
        "name": "Otrić Seoci",
        "slug": "otric-seoci",
        "zip_code": "20342"
    }, {
        "name": "Rogotin",
        "slug": "rogotin",
        "zip_code": "20343"
    }, {
        "name": "Komin (Dalma)",
        "slug": "komin-dalma",
        "zip_code": "20344"
    }, {
        "name": "Staševica",
        "slug": "stasevica",
        "zip_code": "20345"
    }, {
        "name": "Metković",
        "slug": "metkovic",
        "zip_code": "20350"
    }, {
        "name": "Vid",
        "slug": "vid",
        "zip_code": "20352"
    }, {
        "name": "Mlinište",
        "slug": "mliniste",
        "zip_code": "20353"
    }, {
        "name": "Opuzen",
        "slug": "opuzen",
        "zip_code": "20355"
    }, {
        "name": "Klek",
        "slug": "klek",
        "zip_code": "20356"
    }, {
        "name": "Blace",
        "slug": "blace",
        "zip_code": "20357"
    }]
}, {
    "name": "Međimurska",
    "slug": "medimurska",
    "cities": [{
        "name": "Čakovec",
        "slug": "cakovec",
        "zip_code": "40000"
    }, {
        "name": "Nedelišće",
        "slug": "nedelisce",
        "zip_code": "40305"
    }, {
        "name": "Macinec",
        "slug": "macinec",
        "zip_code": "40306"
    }, {
        "name": "Lopatinec",
        "slug": "lopatinec",
        "zip_code": "40311"
    }, {
        "name": "Štrigova",
        "slug": "strigova",
        "zip_code": "40312"
    }, {
        "name": "Sveti Martin na Muri",
        "slug": "sveti-martin-na-muri",
        "zip_code": "40313"
    }, {
        "name": "Selnica",
        "slug": "selnica",
        "zip_code": "40314"
    }, {
        "name": "Mursko Središče",
        "slug": "mursko-sredisce",
        "zip_code": "40315"
    }, {
        "name": "Podturen",
        "slug": "podturen",
        "zip_code": "40317"
    }, {
        "name": "Dekanovec",
        "slug": "dekanovec",
        "zip_code": "40318"
    }, {
        "name": "Belica",
        "slug": "belica",
        "zip_code": "40319"
    }, {
        "name": "Donji Kraljevec",
        "slug": "donji-kraljevec",
        "zip_code": "40320"
    }, {
        "name": "Mala Subotica",
        "slug": "mala-subotica",
        "zip_code": "40321"
    }, {
        "name": "Orehovica",
        "slug": "orehovica",
        "zip_code": "40322"
    }, {
        "name": "Prelog",
        "slug": "prelog",
        "zip_code": "40323"
    }, {
        "name": "Goričan",
        "slug": "gorican",
        "zip_code": "40324"
    }, {
        "name": "Draškovec",
        "slug": "draskovec",
        "zip_code": "40325"
    }, {
        "name": "Sveta Marija",
        "slug": "sveta-marija",
        "zip_code": "40326"
    }, {
        "name": "Donji Vidovec",
        "slug": "donji-vidovec",
        "zip_code": "40327"
    }, {
        "name": "Donja Dubrava",
        "slug": "donja-dubrava",
        "zip_code": "40328"
    }, {
        "name": "Kotoriba",
        "slug": "kotoriba",
        "zip_code": "40329"
    }]
}, {
    "name": "Grad Zagreb",
    "slug": "grad-zagreb",
    "cities": [{
        "name": "Zagreb",
        "slug": "zagreb",
        "zip_code": "10000"
    }, {
        "name": "Zagreb-Sloboština",
        "slug": "zagreb-slobostina",
        "zip_code": "10010"
    }, {
        "name": "Zagreb-Novi Zagreb",
        "slug": "zagreb-novi-zagreb",
        "zip_code": "10020"
    }, {
        "name": "Zagreb-Dubrava",
        "slug": "zagreb-dubrava",
        "zip_code": "10040"
    }, {
        "name": "Zagreb-Susedgrad",
        "slug": "zagreb-susedgrad",
        "zip_code": "10090"
    }, {
        "name": "Zagreb-Trešnjevka",
        "slug": "zagreb-tresnjevka",
        "zip_code": "10110"
    }, {
        "name": "Lučko",
        "slug": "lucko",
        "zip_code": "10250"
    }, {
        "name": "Hrvatski Leskovac",
        "slug": "hrvatski-leskovac",
        "zip_code": "10251"
    }, {
        "name": "Donji Dragonožec",
        "slug": "donji-dragonozec",
        "zip_code": "10253"
    }, {
        "name": "Brezovica",
        "slug": "brezovica",
        "zip_code": "10257"
    }, {
        "name": "Zaprešić",
        "slug": "zapresic",
        "zip_code": "10290"
    }, {
        "name": "Sesvete",
        "slug": "sesvete",
        "zip_code": "10360"
    }, {
        "name": "Sesvete-Kraljevec",
        "slug": "sesvete-kraljevec",
        "zip_code": "10361"
    }, {
        "name": "Kašina",
        "slug": "kasina",
        "zip_code": "10362"
    }, {
        "name": "Belovar",
        "slug": "belovar",
        "zip_code": "10363"
    }, {
        "name": "Ivanja Reka",
        "slug": "ivanja-reka",
        "zip_code": "10373"
    }]
}]